[
  {
    "OBJECT_NAME": "STARLINK-30389",
    "OBJECT_ID": "23134N",
    "EPOCH": "2025-11-11T04:11:45.654144",
    "MEAN_MOTION": 15.02535797,
    "ECCENTRICITY": 9.28e-05,
    "INCLINATION": 43.0008,
    "RA_OF_ASC_NODE": 121.4683,
    "ARG_OF_PERICENTER": 271.0839,
    "MEAN_ANOMALY": 88.9897,
    "EPHEMERIS_TYPE": 0,
    "CLASSIFICATION_TYPE": "U",
    "NORAD_CAT_ID": 57783,
    "ELEMENT_SET_NO": 999,
    "REV_AT_EPOCH": 12164,
    "BSTAR": 8.2087e-05,
    "MEAN_MOTION_DOT": 9.06e-06,
    "MEAN_MOTION_DDOT": 0.0,
    "TLE_LINE1": "1 57783U 23134N   25315.17483396  .00000906  00000+0  82087-4 0  9993",
    "TLE_LINE2": "2 57783  43.0008 121.4683 0000928 271.0839  88.9897 15.02535797121648",
    "COMMENT": "Grouped by shell and plane from TLE"
  },
  {
    "OBJECT_NAME": "STARLINK-30388",
    "OBJECT_ID": "23134P",
    "EPOCH": "2025-11-10T20:08:18.436128",
    "MEAN_MOTION": 15.02535756,
    "ECCENTRICITY": 0.00012,
    "INCLINATION": 43.0032,
    "RA_OF_ASC_NODE": 123.2556,
    "ARG_OF_PERICENTER": 264.1821,
    "MEAN_ANOMALY": 95.8884,
    "EPHEMERIS_TYPE": 0,
    "CLASSIFICATION_TYPE": "U",
    "NORAD_CAT_ID": 57784,
    "ELEMENT_SET_NO": 999,
    "REV_AT_EPOCH": 12159,
    "BSTAR": 4.817e-05,
    "MEAN_MOTION_DOT": 4.47e-06,
    "MEAN_MOTION_DDOT": 0.0,
    "TLE_LINE1": "1 57784U 23134P   25314.83910227  .00000447  00000+0  48170-4 0  9999",
    "TLE_LINE2": "2 57784  43.0032 123.2556 0001200 264.1821  95.8884 15.02535756121595",
    "COMMENT": "Grouped by shell and plane from TLE"
  },
  {
    "OBJECT_NAME": "STARLINK-30381",
    "OBJECT_ID": "23134Q",
    "EPOCH": "2025-11-11T03:33:21.666816",
    "MEAN_MOTION": 15.02532773,
    "ECCENTRICITY": 0.0001466,
    "INCLINATION": 43.0011,
    "RA_OF_ASC_NODE": 121.1802,
    "ARG_OF_PERICENTER": 263.5972,
    "MEAN_ANOMALY": 96.4703,
    "EPHEMERIS_TYPE": 0,
    "CLASSIFICATION_TYPE": "U",
    "NORAD_CAT_ID": 57785,
    "ELEMENT_SET_NO": 999,
    "REV_AT_EPOCH": 12164,
    "BSTAR": 0.00012984999999999998,
    "MEAN_MOTION_DOT": 1.551e-05,
    "MEAN_MOTION_DDOT": 0.0,
    "TLE_LINE1": "1 57785U 23134Q   25315.14816744  .00001551  00000+0  12985-3 0  9995",
    "TLE_LINE2": "2 57785  43.0011 121.1802 0001466 263.5972  96.4703 15.02532773121647",
    "COMMENT": "Grouped by shell and plane from TLE"
  },
  {
    "OBJECT_NAME": "STARLINK-30382",
    "OBJECT_ID": "23134R",
    "EPOCH": "2025-11-10T21:39:14.428512",
    "MEAN_MOTION": 15.02535816,
    "ECCENTRICITY": 0.0001323,
    "INCLINATION": 43.0023,
    "RA_OF_ASC_NODE": 122.8679,
    "ARG_OF_PERICENTER": 264.3705,
    "MEAN_ANOMALY": 95.6987,
    "EPHEMERIS_TYPE": 0,
    "CLASSIFICATION_TYPE": "U",
    "NORAD_CAT_ID": 57786,
    "ELEMENT_SET_NO": 999,
    "REV_AT_EPOCH": 12160,
    "BSTAR": 1.701e-05,
    "MEAN_MOTION_DOT": 2.6e-07,
    "MEAN_MOTION_DDOT": 0.0,
    "TLE_LINE1": "1 57786U 23134R   25314.90225033  .00000026  00000+0  17010-4 0  9995",
    "TLE_LINE2": "2 57786  43.0023 122.8679 0001323 264.3705  95.6987 15.02535816121608",
    "COMMENT": "Grouped by shell and plane from TLE"
  },
  {
    "OBJECT_NAME": "STARLINK-30378",
    "OBJECT_ID": "23134S",
    "EPOCH": "2025-11-10T17:54:13.078944",
    "MEAN_MOTION": 15.02538365,
    "ECCENTRICITY": 0.0001244,
    "INCLINATION": 43.0019,
    "RA_OF_ASC_NODE": 123.4145,
    "ARG_OF_PERICENTER": 268.9126,
    "MEAN_ANOMALY": 91.1574,
    "EPHEMERIS_TYPE": 0,
    "CLASSIFICATION_TYPE": "U",
    "NORAD_CAT_ID": 57787,
    "ELEMENT_SET_NO": 999,
    "REV_AT_EPOCH": 12158,
    "BSTAR": 8.2531e-05,
    "MEAN_MOTION_DOT": 9.11e-06,
    "MEAN_MOTION_DDOT": 0.0,
    "TLE_LINE1": "1 57787U 23134S   25314.74598471  .00000911  00000+0  82531-4 0  9990",
    "TLE_LINE2": "2 57787  43.0019 123.4145 0001244 268.9126  91.1574 15.02538365121580",
    "COMMENT": "Grouped by shell and plane from TLE"
  },
  {
    "OBJECT_NAME": "STARLINK-30367",
    "OBJECT_ID": "23134W",
    "EPOCH": "2025-11-10T18:08:36.910464",
    "MEAN_MOTION": 15.02535837,
    "ECCENTRICITY": 7.81e-05,
    "INCLINATION": 43.0015,
    "RA_OF_ASC_NODE": 123.4882,
    "ARG_OF_PERICENTER": 271.7625,
    "MEAN_ANOMALY": 88.3128,
    "EPHEMERIS_TYPE": 0,
    "CLASSIFICATION_TYPE": "U",
    "NORAD_CAT_ID": 57791,
    "ELEMENT_SET_NO": 999,
    "REV_AT_EPOCH": 12158,
    "BSTAR": 0.00016003,
    "MEAN_MOTION_DOT": 1.959e-05,
    "MEAN_MOTION_DDOT": 0.0,
    "TLE_LINE1": "1 57791U 23134W   25314.75598276  .00001959  00000+0  16003-3 0  9992",
    "TLE_LINE2": "2 57791  43.0015 123.4882 0000781 271.7625  88.3128 15.02535837121584",
    "COMMENT": "Grouped by shell and plane from TLE"
  },
  {
    "OBJECT_NAME": "STARLINK-30800",
    "OBJECT_ID": "23170A",
    "EPOCH": "2025-11-10T17:47:28.589568",
    "MEAN_MOTION": 15.02532826,
    "ECCENTRICITY": 7.12e-05,
    "INCLINATION": 43.0002,
    "RA_OF_ASC_NODE": 122.4999,
    "ARG_OF_PERICENTER": 256.0899,
    "MEAN_ANOMALY": 103.9864,
    "EPHEMERIS_TYPE": 0,
    "CLASSIFICATION_TYPE": "U",
    "NORAD_CAT_ID": 58206,
    "ELEMENT_SET_NO": 999,
    "REV_AT_EPOCH": 11238,
    "BSTAR": 1.7784e-05,
    "MEAN_MOTION_DOT": 3.7e-07,
    "MEAN_MOTION_DDOT": 0.0,
    "TLE_LINE1": "1 58206U 23170A   25314.74130312  .00000037  00000+0  17784-4 0  9990",
    "TLE_LINE2": "2 58206  43.0002 122.4999 0000712 256.0899 103.9864 15.02532826112387",
    "COMMENT": "Grouped by shell and plane from TLE"
  },
  {
    "OBJECT_NAME": "STARLINK-30841",
    "OBJECT_ID": "23170C",
    "EPOCH": "2025-11-11T03:36:12.957408",
    "MEAN_MOTION": 15.02538373,
    "ECCENTRICITY": 0.0001432,
    "INCLINATION": 43.0032,
    "RA_OF_ASC_NODE": 120.3938,
    "ARG_OF_PERICENTER": 267.0516,
    "MEAN_ANOMALY": 93.0162,
    "EPHEMERIS_TYPE": 0,
    "CLASSIFICATION_TYPE": "U",
    "NORAD_CAT_ID": 58208,
    "ELEMENT_SET_NO": 999,
    "REV_AT_EPOCH": 11244,
    "BSTAR": 0.00010668,
    "MEAN_MOTION_DOT": 1.238e-05,
    "MEAN_MOTION_DDOT": 0.0,
    "TLE_LINE1": "1 58208U 23170C   25315.15014997  .00001238  00000+0  10668-3 0  9995",
    "TLE_LINE2": "2 58208  43.0032 120.3938 0001432 267.0516  93.0162 15.02538373112440",
    "COMMENT": "Grouped by shell and plane from TLE"
  },
  {
    "OBJECT_NAME": "STARLINK-30839",
    "OBJECT_ID": "23170D",
    "EPOCH": "2025-11-10T20:44:30.595200",
    "MEAN_MOTION": 15.02551352,
    "ECCENTRICITY": 0.0001669,
    "INCLINATION": 43.0024,
    "RA_OF_ASC_NODE": 121.7045,
    "ARG_OF_PERICENTER": 271.5247,
    "MEAN_ANOMALY": 88.5405,
    "EPHEMERIS_TYPE": 0,
    "CLASSIFICATION_TYPE": "U",
    "NORAD_CAT_ID": 58209,
    "ELEMENT_SET_NO": 999,
    "REV_AT_EPOCH": 11240,
    "BSTAR": 0.00048464000000000005,
    "MEAN_MOTION_DOT": 6.352e-05,
    "MEAN_MOTION_DDOT": 0.0,
    "TLE_LINE1": "1 58209U 23170D   25314.86424300  .00006352  00000+0  48464-3 0  9993",
    "TLE_LINE2": "2 58209  43.0024 121.7045 0001669 271.5247  88.5405 15.02551352112406",
    "COMMENT": "Grouped by shell and plane from TLE"
  },
  {
    "OBJECT_NAME": "STARLINK-30846",
    "OBJECT_ID": "23170E",
    "EPOCH": "2025-11-10T20:49:20.522496",
    "MEAN_MOTION": 15.02533934,
    "ECCENTRICITY": 0.0001261,
    "INCLINATION": 43.003,
    "RA_OF_ASC_NODE": 121.7278,
    "ARG_OF_PERICENTER": 267.5651,
    "MEAN_ANOMALY": 92.5046,
    "EPHEMERIS_TYPE": 0,
    "CLASSIFICATION_TYPE": "U",
    "NORAD_CAT_ID": 58210,
    "ELEMENT_SET_NO": 999,
    "REV_AT_EPOCH": 11240,
    "BSTAR": 0.0,
    "MEAN_MOTION_DOT": -3.93e-06,
    "MEAN_MOTION_DDOT": 0.0,
    "TLE_LINE1": "1 58210U 23170E   25314.86759864 -.00000393  00000+0 -14031-4 0  9996",
    "TLE_LINE2": "2 58210  43.0030 121.7278 0001261 267.5651  92.5046 15.02533934112407",
    "COMMENT": "Grouped by shell and plane from TLE"
  },
  {
    "OBJECT_NAME": "STARLINK-30837",
    "OBJECT_ID": "23170G",
    "EPOCH": "2025-11-10T20:54:05.803200",
    "MEAN_MOTION": 15.02571633,
    "ECCENTRICITY": 9.5e-05,
    "INCLINATION": 43.0024,
    "RA_OF_ASC_NODE": 121.7357,
    "ARG_OF_PERICENTER": 260.5309,
    "MEAN_ANOMALY": 99.5426,
    "EPHEMERIS_TYPE": 0,
    "CLASSIFICATION_TYPE": "U",
    "NORAD_CAT_ID": 58212,
    "ELEMENT_SET_NO": 999,
    "REV_AT_EPOCH": 11240,
    "BSTAR": 0.0,
    "MEAN_MOTION_DOT": -1.208e-05,
    "MEAN_MOTION_DDOT": 0.0,
    "TLE_LINE1": "1 58212U 23170G   25314.87090050 -.00001208  00000+0 -74297-4 0  9990",
    "TLE_LINE2": "2 58212  43.0024 121.7357 0000950 260.5309  99.5426 15.02571633112404",
    "COMMENT": "Grouped by shell and plane from TLE"
  },
  {
    "OBJECT_NAME": "STARLINK-30851",
    "OBJECT_ID": "23170K",
    "EPOCH": "2025-11-10T18:44:51.771264",
    "MEAN_MOTION": 15.02534923,
    "ECCENTRICITY": 0.0001466,
    "INCLINATION": 43.0015,
    "RA_OF_ASC_NODE": 121.9406,
    "ARG_OF_PERICENTER": 268.9756,
    "MEAN_ANOMALY": 91.0918,
    "EPHEMERIS_TYPE": 0,
    "CLASSIFICATION_TYPE": "U",
    "NORAD_CAT_ID": 58215,
    "ELEMENT_SET_NO": 999,
    "REV_AT_EPOCH": 11239,
    "BSTAR": 0.00028460000000000003,
    "MEAN_MOTION_DOT": 3.643e-05,
    "MEAN_MOTION_DDOT": 0.0,
    "TLE_LINE1": "1 58215U 23170K   25314.78115476  .00003643  00000+0  28460-3 0  9996",
    "TLE_LINE2": "2 58215  43.0015 121.9406 0001466 268.9756  91.0918 15.02534923112397",
    "COMMENT": "Grouped by shell and plane from TLE"
  },
  {
    "OBJECT_NAME": "STARLINK-30818",
    "OBJECT_ID": "23170M",
    "EPOCH": "2025-11-10T20:10:59.600640",
    "MEAN_MOTION": 15.02525226,
    "ECCENTRICITY": 0.0001463,
    "INCLINATION": 43.0019,
    "RA_OF_ASC_NODE": 121.5302,
    "ARG_OF_PERICENTER": 275.1683,
    "MEAN_ANOMALY": 84.8993,
    "EPHEMERIS_TYPE": 0,
    "CLASSIFICATION_TYPE": "U",
    "NORAD_CAT_ID": 58217,
    "ELEMENT_SET_NO": 999,
    "REV_AT_EPOCH": 11240,
    "BSTAR": 9.9061e-05,
    "MEAN_MOTION_DOT": 1.134e-05,
    "MEAN_MOTION_DDOT": 0.0,
    "TLE_LINE1": "1 58217U 23170M   25314.84096760  .00001134  00000+0  99061-4 0  9998",
    "TLE_LINE2": "2 58217  43.0019 121.5302 0001463 275.1683  84.8993 15.02525226112401",
    "COMMENT": "Grouped by shell and plane from TLE"
  }
]